OBJECT_NAME,OBJECT_ID,EPOCH,MEAN_MOTION,ECCENTRICITY,INCLINATION,RA_OF_ASC_NODE,ARG_OF_PERICENTER,MEAN_ANOMALY,EPHEMERIS_TYPE,CLASSIFICATION_TYPE,NORAD_CAT_ID,ELEMENT_SET_NO,REV_AT_EPOCH,BSTAR,MEAN_MOTION_DOT,MEAN_MOTION_DDOT
FORMOSAT 7-2,2019-036N,2026-07-23T07:06:19.283328,14.96631896,.0000277,23.9976,265.3596,224.6275,135.4203,0,U,44351,999,38900,.14909E-3,.2044E-4,0
FORMOSAT 7-6,2019-036Q,2026-07-23T19:53:44.666880,14.96640453,.0001203,23.9980,82.5700,157.4522,202.6032,0,U,44353,999,38731,.18536E-3,.2468E-4,0
FORMOSAT 7-5,2019-036V,2026-07-23T20:57:26.703072,14.96621180,.000001,23.9996,21.0286,107.2645,252.7857,0,U,44358,999,38785,.18955E-3,.2516E-4,0
METEOR-M2 2,2019-038A,2026-07-23T21:54:47.458656,14.24374210,.0000148,98.9174,192.7445,340.4931,19.6241,0,U,44387,999,36652,.37861E-5,-.37E-6,0
GLOBAL-4,2019-054E,2026-07-23T16:32:14.706240,15.67923044,.0006654,45.0062,25.2314,249.1242,110.8944,0,U,44499,999,38608,.55393E-3,.62914E-3,0
ZY-1 02D,2019-059A,2026-07-23T21:02:02.387328,14.35269377,.000299,98.6707,266.4732,262.9625,97.1220,0,U,44528,999,35960,-.26198E-4,-.12E-5,0
TAURUS-1 (JINNIUZUO 1),2019-059C,2026-07-23T20:59:13.021728,14.72436320,.0008679,98.6448,11.9943,187.6874,172.4200,0,U,44530,999,36404,.97596E-3,.6139E-4,0
ZHUHAI-1 03B,2019-060C,2026-07-23T20:39:52.522848,15.56059181,.0008912,97.5560,4.6716,174.4226,185.7129,0,U,44536,999,38202,.53218E-3,.37163E-3,0
ZHUHAI-1 03D,2019-060E,2026-07-23T20:58:44.259168,15.51795167,.0007907,97.5399,356.4831,160.6848,199.4705,0,U,44538,999,38176,.61421E-3,.36741E-3,0
ZHUHAI-1 03E,2019-060F,2026-07-23T20:26:44.883168,15.42146896,.0004686,97.5648,356.1109,237.0318,123.0478,0,U,44539,999,38141,.4613E-3,.19701E-3,0
GAOFEN-7,2019-072A,2026-07-23T20:03:52.076160,15.20966292,.0016881,97.5701,265.6137,279.6751,80.2577,0,U,44703,999,37321,.1935E-3,.4229E-4,0
JILIN-1 GAOFEN 2A,2019-075A,2026-07-23T20:27:41.570208,15.40194877,.0004501,97.4956,289.5213,317.9145,42.1755,0,U,44777,999,37052,.36108E-3,.14426E-3,0
NINGXIA-1 1,2019-076A,2026-07-23T12:33:08.643744,14.02042985,.001115,45.0071,17.4728,326.4934,33.5193,0,U,44779,999,34295,.35032E-4,-.76E-6,0
NINGXIA-1 5,2019-076E,2026-07-23T19:40:54.702912,14.02090346,.0011165,45.0069,15.4741,318.2704,41.7278,0,U,44783,999,34291,.18771E-4,-.101E-5,0
KL-ALPHA A,2019-077A,2026-07-23T20:47:53.655936,13.56046010,.001152,88.9240,218.5524,13.8408,346.3059,0,U,44785,999,33070,.74876E-4,.65E-6,0
CARTOSAT-3,2019-081A,2026-07-23T20:14:40.706880,15.19226073,.0012218,97.4287,266.1151,31.5375,328.6589,0,U,44804,999,36903,.13338E-3,.2746E-4,0
JILIN-1 GAOFEN 2B,2019-086A,2026-07-23T20:37:35.177952,15.21074044,.0014056,97.4866,276.6259,184.6852,175.4254,0,U,44836,999,36606,.26768E-3,.5893E-4,0
TIANQIN 1 (CAS-6),2019-093A,2026-07-23T19:43:12.338112,14.95583935,.0009906,97.7792,288.3994,293.8139,66.2043,0,U,44879,999,35752,.17969E-3,.1937E-4,0
ETRSS-1,2019-093B,2026-07-23T19:37:24.305952,14.96036997,.0009986,97.7811,288.8876,294.4935,65.5245,0,U,44880,999,35753,.21079E-3,.231E-4,0
TIANYAN 01,2019-093C,2026-07-23T20:44:12.807168,14.86567508,.0012832,97.7512,276.1992,332.4044,27.6490,0,U,44881,999,35686,.27741E-4,.192E-5,0
TIANYAN 02,2019-093D,2026-07-23T19:25:58.722816,15.05610808,.0012474,97.7939,299.9614,256.3701,103.6136,0,U,44882,999,35812,.52178E-3,.7477E-4,0
CBERS 4A,2019-093E,2026-07-23T21:37:14.361024,14.81456717,.0001956,98.0175,272.3695,121.8196,238.3207,0,U,44883,999,35651,.1516E-3,.1134E-4,0
WEILAI 1R,2019-093F,2026-07-23T20:35:34.427904,15.00921134,.001458,97.7892,294.8146,277.8489,82.1079,0,U,44884,999,35792,.32871E-3,.4135E-4,0
FLORIPASAT-1,2019-093G,2026-07-23T19:35:08.759040,15.04204593,.0010529,97.7913,299.3230,307.9769,52.0504,0,U,44885,999,35815,.41538E-3,.5715E-4,0
SHUNTIAN,2019-093H,2026-07-23T19:31:21.701568,14.95313234,.0010172,97.8010,292.7905,308.2102,51.8202,0,U,44886,999,35765,.24093E-3,.2599E-4,0
ELEKTRO-L 3,2019-095A,2026-07-23T20:11:23.574048,1.00271958,.0001664,0.3489,82.4163,19.8679,218.1161,0,U,44903,999,2407,0,-.92E-6,0
GONETS-M 14,2019-096A,2026-07-23T20:03:38.722176,12.42870494,.0014443,82.5215,61.9155,73.2162,287.0501,0,U,44905,999,29823,-.81533E-3,-.103E-5,0
