FORMOSAT 7-2            
1 44351U 19036N   26204.29605652  .00002044  00000+0  14909-3 0  9990
2 44351  23.9976 265.3596 0000277 224.6275 135.4203 14.96631896389006
FORMOSAT 7-6            
1 44353U 19036Q   26204.82898920  .00002468  00000+0  18536-3 0  9993
2 44353  23.9980  82.5700 0001203 157.4522 202.6032 14.96640453387315
FORMOSAT 7-5            
1 44358U 19036V   26204.87322573  .00002516  00000+0  18955-3 0  9998
2 44358  23.9996  21.0286 0000010 107.2645 252.7857 14.96621180387854
METEOR-M2 2             
1 44387U 19038A   26204.91304929 -.00000037  00000+0  37861-5 0  9998
2 44387  98.9174 192.7445 0000148 340.4931  19.6241 14.24374210366528
GLOBAL-4                
1 44499U 19054E   26204.68905910  .00062914  00000+0  55393-3 0  9990
2 44499  45.0062  25.2314 0006654 249.1242 110.8944 15.67923044386084
ZY-1 02D                
1 44528U 19059A   26204.87641652 -.00000120  00000+0 -26198-4 0  9994
2 44528  98.6707 266.4732 0002990 262.9625  97.1220 14.35269377359605
TAURUS-1 (JINNIUZUO 1)  
1 44530U 19059C   26204.87445627  .00006139  00000+0  97596-3 0  9994
2 44530  98.6448  11.9943 0008679 187.6874 172.4200 14.72436320364040
ZHUHAI-1 03B            
1 44536U 19060C   26204.86102457  .00037163  00000+0  53218-3 0  9996
2 44536  97.5560   4.6716 0008912 174.4226 185.7129 15.56059181382025
ZHUHAI-1 03D            
1 44538U 19060E   26204.87412337  .00036741  00000+0  61421-3 0  9996
2 44538  97.5399 356.4831 0007907 160.6848 199.4705 15.51795167381761
ZHUHAI-1 03E            
1 44539U 19060F   26204.85190837  .00019701  00000+0  46130-3 0  9990
2 44539  97.5648 356.1109 0004686 237.0318 123.0478 15.42146896381417
GAOFEN-7                
1 44703U 19072A   26204.83601940  .00004229  00000+0  19350-3 0  9999
2 44703  97.5701 265.6137 0016881 279.6751  80.2577 15.20966292373217
JILIN-1 GAOFEN 2A       
1 44777U 19075A   26204.85256447  .00014426  00000+0  36108-3 0  9993
2 44777  97.4956 289.5213 0004501 317.9145  42.1755 15.40194877370528
NINGXIA-1 1             
1 44779U 19076A   26204.52301671 -.00000076  00000+0  35032-4 0  9993
2 44779  45.0071  17.4728 0011150 326.4934  33.5193 14.02042985342950
NINGXIA-1 5             
1 44783U 19076E   26204.82007758 -.00000101  00000+0  18771-4 0  9990
2 44783  45.0069  15.4741 0011165 318.2704  41.7278 14.02090346342910
KL-ALPHA A              
1 44785U 19077A   26204.86659324  .00000065  00000+0  74876-4 0  9995
2 44785  88.9240 218.5524 0011520  13.8408 346.3059 13.56046010330700
CARTOSAT-3              
1 44804U 19081A   26204.84352670  .00002746  00000+0  13338-3 0  9997
2 44804  97.4287 266.1151 0012218  31.5375 328.6589 15.19226073369037
JILIN-1 GAOFEN 2B       
1 44836U 19086A   26204.85943493  .00005893  00000+0  26768-3 0  9994
2 44836  97.4866 276.6259 0014056 184.6852 175.4254 15.21074044366061
TIANQIN 1 (CAS-6)       
1 44879U 19093A   26204.82167058  .00001937  00000+0  17969-3 0  9999
2 44879  97.7792 288.3994 0009906 293.8139  66.2043 14.95583935357522
ETRSS-1                 
1 44880U 19093B   26204.81764243  .00002310  00000+0  21079-3 0  9992
2 44880  97.7811 288.8876 0009986 294.4935  65.5245 14.96036997357538
TIANYAN 01              
1 44881U 19093C   26204.86403712  .00000192  00000+0  27741-4 0  9998
2 44881  97.7512 276.1992 0012832 332.4044  27.6490 14.86567508356866
TIANYAN 02              
1 44882U 19093D   26204.80970744  .00007477  00000+0  52178-3 0  9991
2 44882  97.7939 299.9614 0012474 256.3701 103.6136 15.05610808358127
CBERS 4A                
1 44883U 19093E   26204.90086066  .00001134  00000+0  15160-3 0  9992
2 44883  98.0175 272.3695 0001956 121.8196 238.3207 14.81456717356511
WEILAI 1R               
1 44884U 19093F   26204.85803736  .00004135  00000+0  32871-3 0  9990
2 44884  97.7892 294.8146 0014580 277.8489  82.1079 15.00921134357928
FLORIPASAT-1            
1 44885U 19093G   26204.81607360  .00005715  00000+0  41538-3 0  9997
2 44885  97.7913 299.3230 0010529 307.9769  52.0504 15.04204593358154
SHUNTIAN                
1 44886U 19093H   26204.81344562  .00002599  00000+0  24093-3 0  9994
2 44886  97.8010 292.7905 0010172 308.2102  51.8202 14.95313234357657
ELEKTRO-L 3             
1 44903U 19095A   26204.84124507 -.00000092  00000+0  00000+0 0  9999
2 44903   0.3489  82.4163 0001664  19.8679 218.1161  1.00271958 24073
GONETS-M 14             
1 44905U 19096A   26204.83586484 -.00000103  00000+0 -81533-3 0  9995
2 44905  82.5215  61.9155 0014443  73.2162 287.0501 12.42870494298239
